[{"OBJECT_NAME":"EUTELSAT 139 WEST A","OBJECT_ID":"2004-008A","EPOCH":"2026-03-29T04:32:06.177696","MEAN_MOTION":1.0083314,"ECCENTRICITY":0.0003419,"INCLINATION":5.6265,"RA_OF_ASC_NODE":72.948,"ARG_OF_PERICENTER":25.3974,"MEAN_ANOMALY":168.8666,"EPHEMERIS_TYPE":0,"CLASSIFICATION_TYPE":"U","NORAD_CAT_ID":28187,"ELEMENT_SET_NO":999,"REV_AT_EPOCH":8055,"BSTAR":0,"MEAN_MOTION_DOT":1.17e-6,"MEAN_MOTION_DDOT":0},{"OBJECT_NAME":"EUTELSAT 174A","OBJECT_ID":"2005-052A","EPOCH":"2026-03-29T03:35:34.101600","MEAN_MOTION":1.00272724,"ECCENTRICITY":0.0006361,"INCLINATION":4.0173,"RA_OF_ASC_NODE":77.4977,"ARG_OF_PERICENTER":291.4853,"MEAN_ANOMALY":45.4387,"EPHEMERIS_TYPE":0,"CLASSIFICATION_TYPE":"U","NORAD_CAT_ID":28924,"ELEMENT_SET_NO":999,"REV_AT_EPOCH":5152,"BSTAR":0,"MEAN_MOTION_DOT":-7.0e-8,"MEAN_MOTION_DDOT":0},{"OBJECT_NAME":"EUTELSAT 33F","OBJECT_ID":"2006-032A","EPOCH":"2026-03-29T02:55:15.468384","MEAN_MOTION":1.00274267,"ECCENTRICITY":0.0003482,"INCLINATION":1.4554,"RA_OF_ASC_NODE":83.1195,"ARG_OF_PERICENTER":285.6559,"MEAN_ANOMALY":254.6581,"EPHEMERIS_TYPE":0,"CLASSIFICATION_TYPE":"U","NORAD_CAT_ID":29270,"ELEMENT_SET_NO":999,"REV_AT_EPOCH":4650,"BSTAR":0,"MEAN_MOTION_DOT":1.37e-6,"MEAN_MOTION_DDOT":0},{"OBJECT_NAME":"EUTELSAT HOTBIRD 13C","OBJECT_ID":"2008-065A","EPOCH":"2026-03-29T04:14:15.389664","MEAN_MOTION":1.00270258,"ECCENTRICITY":0.0003965,"INCLINATION":2.7455,"RA_OF_ASC_NODE":80.1172,"ARG_OF_PERICENTER":295.1833,"MEAN_ANOMALY":184.5447,"EPHEMERIS_TYPE":0,"CLASSIFICATION_TYPE":"U","NORAD_CAT_ID":33459,"ELEMENT_SET_NO":999,"REV_AT_EPOCH":4654,"BSTAR":0,"MEAN_MOTION_DOT":-3.0e-6,"MEAN_MOTION_DDOT":0},{"OBJECT_NAME":"EUTELSAT 36B","OBJECT_ID":"2009-065A","EPOCH":"2026-03-29T03:00:14.988672","MEAN_MOTION":1.00270136,"ECCENTRICITY":0.0005862,"INCLINATION":0.2901,"RA_OF_ASC_NODE":78.7077,"ARG_OF_PERICENTER":288.5149,"MEAN_ANOMALY":274.848,"EPHEMERIS_TYPE":0,"CLASSIFICATION_TYPE":"U","NORAD_CAT_ID":36101,"ELEMENT_SET_NO":999,"REV_AT_EPOCH":5990,"BSTAR":0,"MEAN_MOTION_DOT":9.3e-7,"MEAN_MOTION_DDOT":0},{"OBJECT_NAME":"EUTELSAT KA-SAT 9A","OBJECT_ID":"2010-069A","EPOCH":"2026-03-29T02:48:26.345376","MEAN_MOTION":1.00271634,"ECCENTRICITY":0.0003509,"INCLINATION":0.0581,"RA_OF_ASC_NODE":357.1813,"ARG_OF_PERICENTER":144.9177,"MEAN_ANOMALY":95.5469,"EPHEMERIS_TYPE":0,"CLASSIFICATION_TYPE":"U","NORAD_CAT_ID":37258,"ELEMENT_SET_NO":999,"REV_AT_EPOCH":4320,"BSTAR":0,"MEAN_MOTION_DOT":4.2e-7,"MEAN_MOTION_DDOT":0},{"OBJECT_NAME":"EUTELSAT 7 WEST A","OBJECT_ID":"2011-051A","EPOCH":"2026-03-29T04:26:29.217696","MEAN_MOTION":1.0027166,"ECCENTRICITY":9.85e-5,"INCLINATION":0.0701,"RA_OF_ASC_NODE":17.9333,"ARG_OF_PERICENTER":122.1859,"MEAN_ANOMALY":105.7399,"EPHEMERIS_TYPE":0,"CLASSIFICATION_TYPE":"U","NORAD_CAT_ID":37816,"ELEMENT_SET_NO":999,"REV_AT_EPOCH":5307,"BSTAR":0,"MEAN_MOTION_DOT":-8.0e-7,"MEAN_MOTION_DDOT":0},{"OBJECT_NAME":"EUTELSAT 16A","OBJECT_ID":"2011-057A","EPOCH":"2026-03-29T02:50:26.153664","MEAN_MOTION":1.00270495,"ECCENTRICITY":0.0005543,"INCLINATION":0.0563,"RA_OF_ASC_NODE":2.4632,"ARG_OF_PERICENTER":9.4766,"MEAN_ANOMALY":233.1822,"EPHEMERIS_TYPE":0,"CLASSIFICATION_TYPE":"U","NORAD_CAT_ID":37836,"ELEMENT_SET_NO":999,"REV_AT_EPOCH":653,"BSTAR":0,"MEAN_MOTION_DOT":8.4e-7,"MEAN_MOTION_DDOT":0},{"OBJECT_NAME":"EUTELSAT 21B","OBJECT_ID":"2012-062B","EPOCH":"2026-03-29T01:09:20.848608","MEAN_MOTION":1.00270306,"ECCENTRICITY":0.0002922,"INCLINATION":0.0692,"RA_OF_ASC_NODE":356.9459,"ARG_OF_PERICENTER":6.1703,"MEAN_ANOMALY":222.2654,"EPHEMERIS_TYPE":0,"CLASSIFICATION_TYPE":"U","NORAD_CAT_ID":38992,"ELEMENT_SET_NO":999,"REV_AT_EPOCH":4902,"BSTAR":0,"MEAN_MOTION_DOT":1.1e-6,"MEAN_MOTION_DDOT":0},{"OBJECT_NAME":"EUTELSAT 70B","OBJECT_ID":"2012-069A","EPOCH":"2026-03-29T03:05:59.438688","MEAN_MOTION":1.00272207,"ECCENTRICITY":0.0001807,"INCLINATION":0.0663,"RA_OF_ASC_NODE":8.4669,"ARG_OF_PERICENTER":1.4803,"MEAN_ANOMALY":293.5703,"EPHEMERIS_TYPE":0,"CLASSIFICATION_TYPE":"U","NORAD_CAT_ID":39020,"ELEMENT_SET_NO":999,"REV_AT_EPOCH":4870,"BSTAR":0,"MEAN_MOTION_DOT":-6.3e-7,"MEAN_MOTION_DDOT":0},{"OBJECT_NAME":"EUTELSAT 117 WEST A","OBJECT_ID":"2013-012A","EPOCH":"2026-03-29T03:26:38.592672","MEAN_MOTION":1.00272002,"ECCENTRICITY":0.0002925,"INCLINATION":0.0429,"RA_OF_ASC_NODE":35.4102,"ARG_OF_PERICENTER":333.3776,"MEAN_ANOMALY":112.6008,"EPHEMERIS_TYPE":0,"CLASSIFICATION_TYPE":"U","NORAD_CAT_ID":39122,"ELEMENT_SET_NO":999,"REV_AT_EPOCH":4763,"BSTAR":0,"MEAN_MOTION_DOT":-3.2e-7,"MEAN_MOTION_DDOT":0},{"OBJECT_NAME":"EUTELSAT 7B","OBJECT_ID":"2013-022A","EPOCH":"2026-03-29T04:30:28.834272","MEAN_MOTION":1.00271146,"ECCENTRICITY":0.000626,"INCLINATION":0.0682,"RA_OF_ASC_NODE":6.1428,"ARG_OF_PERICENTER":356.9456,"MEAN_ANOMALY":258.0973,"EPHEMERIS_TYPE":0,"CLASSIFICATION_TYPE":"U","NORAD_CAT_ID":39163,"ELEMENT_SET_NO":999,"REV_AT_EPOCH":4714,"BSTAR":0,"MEAN_MOTION_DOT":2.8e-7,"MEAN_MOTION_DDOT":0},{"OBJECT_NAME":"EXPRESS-AT1","OBJECT_ID":"2014-010A","EPOCH":"2026-03-29T04:44:34.983168","MEAN_MOTION":1.00279358,"ECCENTRICITY":4.49e-5,"INCLINATION":0.0542,"RA_OF_ASC_NODE":83.7839,"ARG_OF_PERICENTER":1.1701,"MEAN_ANOMALY":229.1158,"EPHEMERIS_TYPE":0,"CLASSIFICATION_TYPE":"U","NORAD_CAT_ID":39612,"ELEMENT_SET_NO":999,"REV_AT_EPOCH":4401,"BSTAR":0,"MEAN_MOTION_DOT":5.6e-7,"MEAN_MOTION_DDOT":0},{"OBJECT_NAME":"EXPRESS-AT2","OBJECT_ID":"2014-010B","EPOCH":"2026-03-11T12:17:49.138656","MEAN_MOTION":1.0027155,"ECCENTRICITY":0.00013084,"INCLINATION":0.0166,"RA_OF_ASC_NODE":193.7113,"ARG_OF_PERICENTER":80.7943,"MEAN_ANOMALY":218.9521,"EPHEMERIS_TYPE":0,"CLASSIFICATION_TYPE":"U","NORAD_CAT_ID":39613,"ELEMENT_SET_NO":999,"REV_AT_EPOCH":4352,"BSTAR":0,"MEAN_MOTION_DOT":-2.8e-6,"MEAN_MOTION_DDOT":0},{"OBJECT_NAME":"EUTELSAT 3B","OBJECT_ID":"2014-030A","EPOCH":"2026-03-29T04:29:28.929696","MEAN_MOTION":1.00272622,"ECCENTRICITY":2.84e-5,"INCLINATION":0.0644,"RA_OF_ASC_NODE":10.0859,"ARG_OF_PERICENTER":43.8403,"MEAN_ANOMALY":203.1139,"EPHEMERIS_TYPE":0,"CLASSIFICATION_TYPE":"U","NORAD_CAT_ID":39773,"ELEMENT_SET_NO":999,"REV_AT_EPOCH":4326,"BSTAR":0,"MEAN_MOTION_DOT":1.0e-8,"MEAN_MOTION_DDOT":0},{"OBJECT_NAME":"EUTELSAT 115 WEST B","OBJECT_ID":"2015-010B","EPOCH":"2026-03-29T03:18:38.644992","MEAN_MOTION":1.0027121,"ECCENTRICITY":1.34e-5,"INCLINATION":0.0199,"RA_OF_ASC_NODE":36.7282,"ARG_OF_PERICENTER":65.497,"MEAN_ANOMALY":19.0804,"EPHEMERIS_TYPE":0,"CLASSIFICATION_TYPE":"U","NORAD_CAT_ID":40425,"ELEMENT_SET_NO":999,"REV_AT_EPOCH":4059,"BSTAR":0,"MEAN_MOTION_DOT":-4.4e-7,"MEAN_MOTION_DDOT":0},{"OBJECT_NAME":"EUTELSAT 8 WEST B","OBJECT_ID":"2015-039B","EPOCH":"2026-03-29T04:26:14.241120","MEAN_MOTION":1.00271999,"ECCENTRICITY":0.0003821,"INCLINATION":0.0678,"RA_OF_ASC_NODE":356.9179,"ARG_OF_PERICENTER":13.25,"MEAN_ANOMALY":234.9806,"EPHEMERIS_TYPE":0,"CLASSIFICATION_TYPE":"U","NORAD_CAT_ID":40875,"ELEMENT_SET_NO":999,"REV_AT_EPOCH":3885,"BSTAR":0,"MEAN_MOTION_DOT":-8.5e-7,"MEAN_MOTION_DDOT":0}]
