EUTELSAT 139 WEST A     
1 28187U 04008A   26088.18896039  .00000117  00000+0  00000+0 0  9993
2 28187   5.6265  72.9480 0003419  25.3974 168.8666  1.00833140 80558
EUTELSAT 174A           
1 28924U 05052A   26088.14970025 -.00000007  00000+0  00000+0 0  9995
2 28924   4.0173  77.4977 0006361 291.4853  45.4387  1.00272724 51520
EUTELSAT 33F            
1 29270U 06032A   26088.12170681  .00000137  00000+0  00000+0 0  9990
2 29270   1.4554  83.1195 0003482 285.6559 254.6581  1.00274267 46500
EUTELSAT HOTBIRD 13C    
1 33459U 08065A   26088.17656701 -.00000300  00000+0  00000+0 0  9992
2 33459   2.7455  80.1172 0003965 295.1833 184.5447  1.00270258 46549
EUTELSAT 36B            
1 36101U 09065A   26088.12517348  .00000093  00000+0  00000+0 0  9996
2 36101   0.2901  78.7077 0005862 288.5149 274.8480  1.00270136 59905
EUTELSAT KA-SAT 9A      
1 37258U 10069A   26088.11697159  .00000042  00000+0  00000+0 0  9998
2 37258   0.0581 357.1813 0003509 144.9177  95.5469  1.00271634 43200
EUTELSAT 7 WEST A       
1 37816U 11051A   26088.18506039 -.00000080  00000+0  00000+0 0  9996
2 37816   0.0701  17.9333 0000985 122.1859 105.7399  1.00271660 53073
EUTELSAT 16A            
1 37836U 11057A   26088.11835826  .00000084  00000+0  00000+0 0  9999
2 37836   0.0563   2.4632 0005543   9.4766 233.1822  1.00270495  6532
EUTELSAT 21B            
1 38992U 12062B   26088.04815797  .00000110  00000+0  00000+0 0  9997
2 38992   0.0692 356.9459 0002922   6.1703 222.2654  1.00270306 49020
EUTELSAT 70B            
1 39020U 12069A   26088.12916017 -.00000063  00000+0  00000+0 0  9991
2 39020   0.0663   8.4669 0001807   1.4803 293.5703  1.00272207 48705
EUTELSAT 117 WEST A     
1 39122U 13012A   26088.14350223 -.00000032  00000+0  00000+0 0  9992
2 39122   0.0429  35.4102 0002925 333.3776 112.6008  1.00272002 47631
EUTELSAT 7B             
1 39163U 13022A   26088.18783373  .00000028  00000+0  00000+0 0  9992
2 39163   0.0682   6.1428 0006260 356.9456 258.0973  1.00271146 47145
EXPRESS-AT1             
1 39612U 14010A   26088.19762712  .00000056  00000+0  00000+0 0  9995
2 39612   0.0542  83.7839 0000449   1.1701 229.1158  1.00279358 44011
EXPRESS-AT2             
1 39613U 14010B   26070.51237429 -.00000280  00000+0  00000+0 0  9995
2 39613   0.0166 193.7113 0001308  80.7943 218.9521  1.00271550 43528
EUTELSAT 3B             
1 39773U 14030A   26088.18714039  .00000001  00000+0  00000+0 0  9993
2 39773   0.0644  10.0859 0000284  43.8403 203.1139  1.00272622 43260
EUTELSAT 115 WEST B     
1 40425U 15010B   26088.13794728 -.00000044  00000+0  00000+0 0  9994
2 40425   0.0199  36.7282 0000134  65.4970  19.0804  1.00271210 40597
EUTELSAT 8 WEST B       
1 40875U 15039B   26088.18488705 -.00000085  00000+0  00000+0 0  9999
2 40875   0.0678 356.9179 0003821  13.2500 234.9806  1.00271999 38856
